NORAD_CAT_ID,OBJECT_NAME,OBJECT_TYPE,EPOCH,MEAN_MOTION,ECCENTRICITY,INCLINATION,RA_OF_ASC_NODE,ARG_OF_PERICENTER,MEAN_ANOMALY,BSTAR,MEAN_MOTION_DOT,MEAN_MOTION_DDOT,TLE_LINE0,TLE_LINE1,TLE_LINE2,SEMIMAJOR_AXIS,PERIOD,APOGEE,PERIGEE,DECAYED
54051.0,STARLINK-5195,PAYLOAD,2022-11-05 22:00:01,15.73111555,0.0001953,53.2155,67.2207,28.4151,55.3442,0.00057177,0.0008009,0.0,0 STARLINK-5195,1 54051U 22136A   22309.91668981  .00080090  00000-0  57177-3 0  9990,2 54051  53.2155  67.2207 0001953  28.4151  55.3442 15.73111555  3078,6728.147,91.538,351.326,348.6980000000001,0.0
54051.0,STARLINK-5195,PAYLOAD,2022-11-06 06:00:00,15.73572874,0.0001052,53.2162,65.5678,341.5527,190.9135,-0.0084702,-0.01083737,0.0,0 STARLINK-5195,1 54051U 22136A   22310.25001157 -.01083737  00000-0 -84702-2 0  9992,2 54051  53.2162  65.5678 0001052 341.5527 190.9135 15.73572874  3121,6726.831999999999,91.511,349.405,347.99,0.0
54051.0,STARLINK-5195,PAYLOAD,2022-11-06 14:00:01,15.72653426,0.0001603,53.217,63.9189,41.3396,220.0615,-0.0084902,-0.0104814,0.0,0 STARLINK-5195,1 54051U 22136A   22310.58334491 -.01048140  00000-0 -84902-2 0  9999,2 54051  53.2170  63.9189 0001603  41.3396 220.0615 15.72653426  3186,6729.454000000002,91.565,352.398,350.24,0.0
54051.0,STARLINK-5195,PAYLOAD,2022-11-07 00:00:00,15.71685129,0.000174,53.217,61.8586,28.2745,72.7468,-0.010063,-0.01195881,0.0,0 STARLINK-5195,1 54051U 22136A   22311.00001157 -.01195881  00000-0 -10063-1 0  9998,2 54051  53.2170  61.8586 0001740  28.2745  72.7468 15.71685129  3247,6732.218000000003,91.621,355.254,352.911,0.0
54051.0,STARLINK-5195,PAYLOAD,2022-11-07 08:00:01,15.70835833,0.0006626,53.2175,60.2135,270.2368,277.3638,-0.010543,-0.01210293,0.0,0 STARLINK-5195,1 54051U 22136A   22311.33334491 -.01210293  00000-0 -10543-1 0  9992,2 54051  53.2175  60.2135 0006626 270.2368 277.3638 15.70835833  3298,6734.644,91.671,360.971,352.047,0.0
54051.0,STARLINK-5195,PAYLOAD,2022-11-07 22:00:00,15.69327969,0.0001326,53.2171,57.3409,35.0804,211.562,-0.011133,-0.01197496,0.0,0 STARLINK-5195,1 54051U 22136A   22311.91667824 -.01197496  00000-0 -11133-1 0  9990,2 54051  53.2171  57.3409 0001326  35.0804 211.5620 15.69327969  1304,6738.956999999999,91.759,361.716,359.92900000000014,0.0
54051.0,STARLINK-5195,PAYLOAD,2022-11-08 00:00:02,15.69149543,0.0001489,53.2171,56.9311,29.3805,328.3435,-0.011718,-0.01245728,0.0,0 STARLINK-5195,1 54051U 22136A   22312.00002315 -.01245728  00000-0 -11718-1 0  9990,2 54051  53.2171  56.9311 0001489  29.3805 328.3435 15.69149543  3402,6739.468000000003,91.769,362.337,360.33,0.0
54051.0,STARLINK-5195,PAYLOAD,2022-11-08 14:00:01,15.67643426,0.0001449,53.2172,54.0662,43.2238,9.8698,-0.012361,-0.01235754,0.0,0 STARLINK-5195,1 54051U 22136A   22312.58334491 -.01235754  00000-0 -12361-1 0  9999,2 54051  53.2172  54.0662 0001449  43.2238   9.8698 15.67643426  1308,6743.784000000002,91.858,366.626,364.672,0.0
54051.0,STARLINK-5195,PAYLOAD,2022-11-08 22:00:00,15.66754923,0.0001626999999999,53.217,52.4306,35.4991,99.2993,-0.012337,-0.01193886,0.0,0 STARLINK-5195,1 54051U 22136A   22312.91667824 -.01193886  00000-0 -12337-1 0  9997,2 54051  53.2170  52.4306 0001627  35.4991  99.2993 15.66754923  1305,6746.333000000001,91.91,369.296,367.101,0.0
54051.0,STARLINK-5195,PAYLOAD,2022-11-09 06:00:00,15.65966847,0.0001647,53.2172,50.7968,43.69600000000001,171.726,-0.013794,-0.01282382,0.0,0 STARLINK-5195,1 54051U 22136A   22313.25001157 -.01282382  00000-0 -13794-1 0  9994,2 54051  53.2172  50.7968 0001647  43.6960 171.7260 15.65966847  3608,6748.597,91.956,371.573,369.35,0.0
54051.0,STARLINK-5195,PAYLOAD,2022-11-09 14:00:01,15.6503956,0.0001296999999999,53.2176,49.1677,49.5599,245.5253,-0.013197,-0.01191523,0.0,0 STARLINK-5195,1 54051U 22136A   22313.58334491 -.01191523  00000-0 -13197-1 0  9993,2 54051  53.2176  49.1677 0001297  49.5599 245.5253 15.65039560  1305,6751.262,92.01,374.003,372.251,0.0
54051.0,STARLINK-5195,PAYLOAD,2022-11-09 22:00:01,15.64110846,0.0001681,53.2173,47.5375,27.952,345.8319,-0.012459,-0.01093658,0.0,0 STARLINK-5195,1 54051U 22136A   22313.91668981 -.01093658  00000-0 -12459-1 0  9994,2 54051  53.2173  47.5375 0001681  27.9520 345.8319 15.64110846  3709,6753.934,92.065,376.935,374.664,0.0
54051.0,STARLINK-5195,PAYLOAD,2022-11-10 06:00:00,15.63325182,0.0001629,53.2176,45.91,35.8398,55.4134,-0.014102,-0.01189409,0.0,0 STARLINK-5195,1 54051U 22136A   22314.25001157 -.01189409  00000-0 -14102-1 0  9995,2 54051  53.2176  45.9100 0001629  35.8398  55.4134 15.63325182  3757,6756.196999999999,92.111,379.162,376.961,0.0
54051.0,STARLINK-5195,PAYLOAD,2022-11-10 14:00:01,15.62483466,0.0001675,53.2173,44.2884,49.2092,118.5724,-0.014837,-0.01208402,0.0,0 STARLINK-5195,1 54051U 22136A   22314.58334491 -.01208402  00000-0 -14837-1 0  9991,2 54051  53.2173  44.2884 0001675  49.2092 118.5724 15.62483466  1300,6758.623000000001,92.161,381.62,379.356,0.0
54051.0,STARLINK-5195,PAYLOAD,2022-11-10 22:00:00,15.61631098,0.0001737,53.2169,42.6654,33.3018,209.9881,-0.015471,-0.01217609,0.0,0 STARLINK-5195,1 54051U 22136A   22314.91667824 -.01217609  00000-0 -15471-1 0  9991,2 54051  53.2169  42.6654 0001737  33.3018 209.9881 15.61631098  3860,6761.081999999999,92.211,384.121,381.773,0.0
54051.0,STARLINK-5195,PAYLOAD,2022-11-11 14:00:01,15.59912508,0.0001494,53.2174,39.4276,35.396,355.8221,-0.016431,-0.01210433,0.0,0 STARLINK-5195,1 54051U 22136A   22315.58334491 -.01210433  00000-0 -16431-1 0  9991,2 54051  53.2174  39.4276 0001494  35.3960 355.8221 15.59912508  1309,6766.047,92.313,388.923,386.901,0.0
54051.0,STARLINK-5195,PAYLOAD,2022-11-11 22:00:00,15.59045317,0.0001907,53.2172,37.8103,29.7587,73.8833,-0.0167669999999999,-0.01196464,0.0,0 STARLINK-5195,1 54051U 22136A   22315.91667824 -.01196464  00000-0 -16767-1 0  9996,2 54051  53.2172  37.8103 0001907  29.7587  73.8833 15.59045317  1300,6768.556,92.364,391.712,389.13,0.0
54051.0,STARLINK-5195,PAYLOAD,2022-11-12 08:00:01,15.57982593,0.0005905,53.2175,35.7924,271.4547,11.2594,-0.0176699999999999,-0.0121141,0.0,0 STARLINK-5195,1 54051U 22136A   22316.33334491 -.01211410  00000-0 -17670-1 0  9997,2 54051  53.2175  35.7924 0005905 271.4547  11.2594 15.57982593  4087,6771.6330000000025,92.427,397.497,389.5,0.0
54051.0,STARLINK-5195,PAYLOAD,2022-11-12 14:00:01,15.57358782,0.000147,53.2176,34.5855,53.8386,191.5359,-0.018477,-0.01232275,0.0,0 STARLINK-5195,1 54051U 22136A   22316.58334491 -.01232275  00000-0 -18477-1 0  9992,2 54051  53.2176  34.5855 0001470  53.8386 191.5359 15.57358782  4127,6773.441999999999,92.464,396.302,394.311,0.0
54051.0,STARLINK-5195,PAYLOAD,2022-11-12 22:00:00,15.5647037,0.0001374,53.2172,32.9738,40.1324,274.5871,-0.018404,-0.01191572,0.0,0 STARLINK-5195,1 54051U 22136A   22316.91667824 -.01191572  00000-0 -18404-1 0  9992,2 54051  53.2172  32.9738 0001374  40.1324 274.5871 15.56470370  1304,6776.019,92.517,398.815,396.953,0.0
54051.0,STARLINK-5195,PAYLOAD,2022-11-13 14:00:01,15.54768491,0.0001721999999999,53.2173,29.7621,36.2745,54.0041,-0.019874,-0.01224943,0.0,0 STARLINK-5195,1 54051U 22136A   22317.58334491 -.01224943  00000-0 -19874-1 0  9998,2 54051  53.2173  29.7621 0001722  36.2745  54.0041 15.54768491  1302,6780.9630000000025,92.618,403.995,401.66,0.0
54051.0,STARLINK-5195,PAYLOAD,2022-11-13 22:00:00,15.53903852,0.0001698,53.2171,28.1566,41.2858,115.2362,-0.020331,-0.01214793,0.0,0 STARLINK-5195,1 54051U 22136A   22317.91667824 -.01214793  00000-0 -20331-1 0  9996,2 54051  53.2171  28.1566 0001698  41.2858 115.2362 15.53903852  1301,6783.478,92.67,406.495,404.191,0.0
54051.0,STARLINK-5195,PAYLOAD,2022-11-14 14:00:01,15.52181944,0.0001531999999999,53.2175,24.9561,42.8503,243.0613,-0.021422,-0.01203123,0.0,0 STARLINK-5195,1 54051U 22136A   22318.58334491 -.01203123  00000-0 -21422-1 0  9998,2 54051  53.2175  24.9561 0001532  42.8503 243.0613 15.52181944  1303,6788.494000000002,92.773,411.399,409.319,0.0
54051.0,STARLINK-5195,PAYLOAD,2022-11-14 22:00:00,15.51326261,0.0001468,53.2175,23.3569,34.1647,314.8962,-0.022185,-0.01207607,0.0,0 STARLINK-5195,1 54051U 22136A   22318.91667824 -.01207607  00000-0 -22185-1 0  9992,2 54051  53.2175  23.3569 0001468  34.1647 314.8962 15.51326261  1301,6790.99,92.824,413.852,411.858,0.0
54051.0,STARLINK-5195,PAYLOAD,2022-11-15 02:00:01,15.50785355,0.0001511,53.2172,22.5581,40.6007,159.6695,-0.016742,-0.00891888,0.0,0 STARLINK-5195,1 54051U 22136A   22319.08334491 -.00891888  00000-0 -16742-1 0  9993,2 54051  53.2172  22.5581 0001511  40.6007 159.6695 15.50785355  4510,6792.569,92.856,415.46,413.407,0.0
54051.0,STARLINK-5195,PAYLOAD,2022-11-15 14:00:01,15.4977976,0.0001934,53.2161,20.1755,37.3014,74.9908,0.0024331,0.00139611,0.0,0 STARLINK-5195,1 54051U 22136A   22319.58334491  .00139611  00000-0  24331-2 0  9999,2 54051  53.2161  20.1755 0001934  37.3014  74.9908 15.49779760  1306,6795.507,92.916,418.686,416.0580000000001,0.0
54051.0,STARLINK-5195,PAYLOAD,2022-11-15 18:00:02,15.49851604,0.0001884,53.2157,19.3776,35.1022,287.6561,0.0011288,0.00064065,0.0,0 STARLINK-5195,1 54051U 22136A   22319.75002315  .00064065  00000-0  11288-2 0  9992,2 54051  53.2157  19.3776 0001884  35.1022 287.6561 15.49851604  4616,6795.297,92.912,418.442,415.882,0.0
54051.0,STARLINK-5195,PAYLOAD,2022-11-15 22:00:00,15.49850494,0.0001696,53.2166,18.5781,34.3967,138.7467,0.0021311,0.00122258,0.0,0 STARLINK-5195,1 54051U 22136A   22319.91667824  .00122258  00000-0  21311-2 0  9999,2 54051  53.2166  18.5781 0001696  34.3967 138.7467 15.49850494  1303,6795.3,92.912,418.318,416.013,0.0
54051.0,STARLINK-5195,PAYLOAD,2022-11-16 06:00:00,15.50192804,0.0001567,53.217,16.9832,44.1823,189.8247,-0.0064430999999999,-0.00353952,0.0,0 STARLINK-5195,1 54051U 22136A   22320.25001157 -.00353952  00000-0 -64431-2 0  9998,2 54051  53.2170  16.9832 0001567  44.1823 189.8247 15.50192804  4698,6794.3,92.892,417.229,415.1,0.0
